{
    "links": {
        "self": "http://www.neowsapp.com/rest/v1/neo/3879303?api_key=iIulBulltgU6a56xZRHN4H3l9WmuAYTsLGpBGhQ2"
    },
    "id": "3879303",
    "neo_reference_id": "3879303",
    "name": "(2019 UA3)",
    "designation": "2019 UA3",
    "nasa_jpl_url": "http://ssd.jpl.nasa.gov/sbdb.cgi?sstr=3879303",
    "absolute_magnitude_h": 26.1,
    "estimated_diameter": {
        "kilometers": {
            "estimated_diameter_min": 0.0160160338,
            "estimated_diameter_max": 0.0358129403
        },
        "meters": {
            "estimated_diameter_min": 16.0160337979,
            "estimated_diameter_max": 35.8129403019
        },
        "miles": {
            "estimated_diameter_min": 0.0099518989,
            "estimated_diameter_max": 0.0222531225
        },
        "feet": {
            "estimated_diameter_min": 52.5460443254,
            "estimated_diameter_max": 117.4965270602
        }
    },
    "is_potentially_hazardous_asteroid": false,
    "close_approach_data": [
        {
            "close_approach_date": "2019-10-10",
            "close_approach_date_full": "2019-Oct-10 02:55",
            "epoch_date_close_approach": 1570676100000,
            "relative_velocity": {
                "kilometers_per_second": "10.4396620194",
                "kilometers_per_hour": "37582.783269691",
                "miles_per_hour": "23352.4799711033"
            },
            "miss_distance": {
                "astronomical": "0.0044474997",
                "lunar": "1.7300773833",
                "kilometers": "665336.481945639",
                "miles": "413420.9192982582"
            },
            "orbiting_body": "Earth"
        },
        {
            "close_approach_date": "2019-10-10",
            "close_approach_date_full": "2019-Oct-10 08:02",
            "epoch_date_close_approach": 1570694520000,
            "relative_velocity": {
                "kilometers_per_second": "9.5789882008",
                "kilometers_per_hour": "34484.3575228305",
                "miles_per_hour": "21427.2387063388"
            },
            "miss_distance": {
                "astronomical": "0.0062893215",
                "lunar": "2.4465460635",
                "kilometers": "940869.100145205",
                "miles": "584628.949225629"
            },
            "orbiting_body": "Moon"
        }
    ],
    "orbital_data": {
        "orbit_id": "7",
        "orbit_determination_date": "2019-11-01 08:13:25",
        "first_observation_date": "2019-10-20",
        "last_observation_date": "2019-11-01",
        "data_arc_in_days": 12,
        "observations_used": 41,
        "orbit_uncertainty": "7",
        "minimum_orbit_intersection": ".00309706",
        "jupiter_tisserand_invariant": "3.944",
        "epoch_osculation": "2459000.5",
        "eccentricity": ".4836327177426354",
        "semi_major_axis": "1.778897723223451",
        "inclination": "5.699249111381999",
        "ascending_node_longitude": "198.2681736466751",
        "orbital_period": "866.6123938022283",
        "perihelion_distance": ".9185645827547068",
        "perihelion_argument": "137.1597581077818",
        "aphelion_distance": "2.639230863692195",
        "perihelion_time": "2458734.816238455682",
        "mean_anomaly": "110.3678586182117",
        "mean_motion": ".4154106294516675",
        "equinox": "J2000",
        "orbit_class": {
            "orbit_class_type": "APO",
            "orbit_class_description": "Near-Earth asteroid orbits which cross the Earth’s orbit similar to that of 1862 Apollo",
            "orbit_class_range": "a (semi-major axis) > 1.0 AU; q (perihelion) < 1.017 AU"
        }
    },
    "is_sentry_object": false
}